{
"type": "FeatureCollection",
"name": "gauge_stations",
"crs": { "type": "name", "properties": { "name": "urn:ogc:def:crs:OGC:1.3:CRS84" } },
"features": [
{ "type": "Feature", "properties": { "fid": 1784, "gauge_id": "72818", "name_ru": "р.Нева - д.Новосаратовка", "name_en": "r.Neva - d.Novosaratovka" }, "geometry": { "type": "Point", "coordinates": [ 30.51551, 59.84068 ] } },
{ "type": "Feature", "properties": { "fid": 1376, "gauge_id": "75389", "name_ru": "р.Протва - с.Спас-Загорье", "name_en": "r.Protva - s.Spas-Zagor'e" }, "geometry": { "type": "Point", "coordinates": [ 36.608352, 55.049046 ] } },
{ "type": "Feature", "properties": { "fid": 894, "gauge_id": "19063", "name_ru": "р.Урал - г.Оренбург", "name_en": "r.Ural - g.Orenburg" }, "geometry": { "type": "Point", "coordinates": [ 55.1266, 51.7546 ] } },
{ "type": "Feature", "properties": { "fid": 913, "gauge_id": "19159", "name_ru": "р.Сакмара - с.Каргала", "name_en": "r.Sakmara - s.Kargala" }, "geometry": { "type": "Point", "coordinates": [ 55.18, 51.95 ] } },
{ "type": "Feature", "properties": { "fid": 1, "gauge_id": "49001", "name_ru": "р.Ковда - пос.Софпорог", "name_en": "r.Kovda - pos.Sofporog" }, "geometry": { "type": "Point", "coordinates": [ 31.41892, 65.79876 ] } },
{ "type": "Feature", "properties": { "fid": 3, "gauge_id": "49017", "name_ru": "р.Тумча - пос.Алакуртти", "name_en": "r.Tumcha - pos.Alakurtti" }, "geometry": { "type": "Point", "coordinates": [ 30.33082, 66.95957 ] } },
{ "type": "Feature", "properties": { "fid": 7, "gauge_id": "49052", "name_ru": "р.Ухта - пгт Калевала", "name_en": "r.Uhta - pgt Kalevala" }, "geometry": { "type": "Point", "coordinates": [ 31.14297, 65.21779 ] } },
{ "type": "Feature", "properties": { "fid": 8, "gauge_id": "49055", "name_ru": "р.Чирко-Кемь - с.Андронова гора", "name_en": "r.Chirko-Kem' - s.Andronova gora" }, "geometry": { "type": "Point", "coordinates": [ 32.38368, 64.15004 ] } },
{ "type": "Feature", "properties": { "fid": 14, "gauge_id": "49103", "name_ru": "р.Волома - д.Венгигора", "name_en": "r.Voloma - d.Vengigora" }, "geometry": { "type": "Point", "coordinates": [ 33.06936, 63.5483 ] } },
{ "type": "Feature", "properties": { "fid": 15, "gauge_id": "49110", "name_ru": "р.Онда - пос.Лососий порог", "name_en": "r.Onda - pos.Lososij porog" }, "geometry": { "type": "Point", "coordinates": [ 34.1387, 63.87193 ] } },
{ "type": "Feature", "properties": { "fid": 18, "gauge_id": "49123", "name_ru": "р.Сума - с.Сумский Посад", "name_en": "r.Suma - s.Sumskij Posad" }, "geometry": { "type": "Point", "coordinates": [ 35.41194, 64.24372 ] } },
{ "type": "Feature", "properties": { "fid": 21, "gauge_id": "49128", "name_ru": "р.Така - пгт Кестеньга", "name_en": "r.Taka - pgt Kesten'ga" }, "geometry": { "type": "Point", "coordinates": [ 31.87676, 65.90334 ] } },
{ "type": "Feature", "properties": { "fid": 27, "gauge_id": "71068", "name_ru": "р.Шовна - 2 км от устья", "name_en": "r.Shovna - 2 km ot ust'ja" }, "geometry": { "type": "Point", "coordinates": [ 31.92261, 68.68372 ] } },
{ "type": "Feature", "properties": { "fid": 28, "gauge_id": "71085", "name_ru": "р.Лотта - пор.Каллокоски", "name_en": "r.Lotta - por.Kallokoski" }, "geometry": { "type": "Point", "coordinates": [ 28.93065, 68.5459 ] } },
{ "type": "Feature", "properties": { "fid": 33, "gauge_id": "71104", "name_ru": "р.Кола - 1429-ый км Октябрьской ж.д.", "name_en": "r.Kola - 1429-yj km Oktjabr'skoj zh.d." }, "geometry": { "type": "Point", "coordinates": [ 33.09036, 68.83594 ] } },
{ "type": "Feature", "properties": { "fid": 36, "gauge_id": "71131", "name_ru": "р.Воронья - исток", "name_en": "r.Voron'ja - istok" }, "geometry": { "type": "Point", "coordinates": [ 35.150000876315723, 68.109999182514045 ] } },
{ "type": "Feature", "properties": { "fid": 50, "gauge_id": "71258", "name_ru": "р.Монча - г.Мончегорск", "name_en": "r.Moncha - g.Monchegorsk" }, "geometry": { "type": "Point", "coordinates": [ 32.87936, 67.96645 ] } },
{ "type": "Feature", "properties": { "fid": 157, "gauge_id": "76076", "name_ru": "р.Лолог - пос.Сергеевский", "name_en": "r.Lolog - pos.Sergeevskij" }, "geometry": { "type": "Point", "coordinates": [ 54.32239, 60.01535 ] } },
{ "type": "Feature", "properties": { "fid": 161, "gauge_id": "76130", "name_ru": "р.Яйва - с.Усть-Игум", "name_en": "r.Jajva - s.Ust'-Igum" }, "geometry": { "type": "Point", "coordinates": [ 57.1314, 59.16339 ] } },
{ "type": "Feature", "properties": { "fid": 166, "gauge_id": "76159", "name_ru": "р.Обва - с.Карагай", "name_en": "r.Obva - s.Karagaj" }, "geometry": { "type": "Point", "coordinates": [ 54.92808, 58.2784 ] } },
{ "type": "Feature", "properties": { "fid": 167, "gauge_id": "76165", "name_ru": "р.Чусовая - д.Косой Брод", "name_en": "r.Chusovaja - d.Kosoj Brod" }, "geometry": { "type": "Point", "coordinates": [ 60.325833333, 56.48 ] } },
{ "type": "Feature", "properties": { "fid": 168, "gauge_id": "76176", "name_ru": "р.Чусовая - пгт Староуткинск", "name_en": "r.Chusovaja - pgt Staroutkinsk" }, "geometry": { "type": "Point", "coordinates": [ 59.34089, 57.23127 ] } },
{ "type": "Feature", "properties": { "fid": 181, "gauge_id": "76289", "name_ru": "р.Белая - г.Уфа", "name_en": "r.Belaja - g.Ufa" }, "geometry": { "type": "Point", "coordinates": [ 55.95279, 54.71036 ] } },
{ "type": "Feature", "properties": { "fid": 184, "gauge_id": "76318", "name_ru": "р.Нугуш - с.Новосеитово", "name_en": "r.Nugush - s.Novoseitovo" }, "geometry": { "type": "Point", "coordinates": [ 57.16225, 53.52925 ] } },
{ "type": "Feature", "properties": { "fid": 188, "gauge_id": "76345", "name_ru": "р.Лемеза - с.Нижние Лемезы", "name_en": "r.Lemeza - s.Nizhnie Lemezy" }, "geometry": { "type": "Point", "coordinates": [ 56.99086, 54.74823 ] } },
{ "type": "Feature", "properties": { "fid": 189, "gauge_id": "76351", "name_ru": "р.Инзер - д.Азово", "name_en": "r.Inzer - d.Azovo" }, "geometry": { "type": "Point", "coordinates": [ 57.08928, 54.45598 ] } },
{ "type": "Feature", "properties": { "fid": 191, "gauge_id": "76360", "name_ru": "р.Уфа - г.Нязепетровск", "name_en": "r.Ufa - g.Njazepetrovsk" }, "geometry": { "type": "Point", "coordinates": [ 59.55994, 56.01462 ] } },
{ "type": "Feature", "properties": { "fid": 195, "gauge_id": "76406", "name_ru": "р.Ай - с.Веселовка", "name_en": "r.Aj - s.Veselovka" }, "geometry": { "type": "Point", "coordinates": [ 59.56053, 54.96446 ] } },
{ "type": "Feature", "properties": { "fid": 200, "gauge_id": "76423", "name_ru": "р.Большая Арша - д.Вознесенская", "name_en": "r.Bol'shaja Arsha - d.Voznesenskaja" }, "geometry": { "type": "Point", "coordinates": [ 59.62374, 55.5341 ] } },
{ "type": "Feature", "properties": { "fid": 202, "gauge_id": "76456", "name_ru": "р.Сарс - с.Султанбеково", "name_en": "r.Sars - s.Sultanbekovo" }, "geometry": { "type": "Point", "coordinates": [ 57.1419, 56.02663 ] } },
{ "type": "Feature", "properties": { "fid": 204, "gauge_id": "76462", "name_ru": "р.Юрюзань - д.Чулпан", "name_en": "r.Jurjuzan' - d.Chulpan" }, "geometry": { "type": "Point", "coordinates": [ 58.10774, 55.29136 ] } },
{ "type": "Feature", "properties": { "fid": 228, "gauge_id": "76594", "name_ru": "р.Белая Холуница - пос.Климковка", "name_en": "r.Belaja Holunitsa - pos.Klimkovka" }, "geometry": { "type": "Point", "coordinates": [ 51.21799, 58.88201 ] } },
{ "type": "Feature", "properties": { "fid": 231, "gauge_id": "76601", "name_ru": "р.Лоза - пгт Игра", "name_en": "r.Loza - pgt Igra" }, "geometry": { "type": "Point", "coordinates": [ 53.05517, 57.54876 ] } },
{ "type": "Feature", "properties": { "fid": 234, "gauge_id": "76611", "name_ru": "р.Великая - с.Великорецкое", "name_en": "r.Velikaja - s.Velikoretskoe" }, "geometry": { "type": "Point", "coordinates": [ 49.03072, 58.89628 ] } },
{ "type": "Feature", "properties": { "fid": 241, "gauge_id": "76638", "name_ru": "р.Вала - с.Вавож", "name_en": "r.Vala - s.Vavozh" }, "geometry": { "type": "Point", "coordinates": [ 51.90801, 56.75849 ] } },
{ "type": "Feature", "properties": { "fid": 245, "gauge_id": "76646", "name_ru": "р.Анзирка - с.Яковлево", "name_en": "r.Anzirka - s.Jakovlevo" }, "geometry": { "type": "Point", "coordinates": [ 51.56558, 55.73488 ] } },
{ "type": "Feature", "properties": { "fid": 248, "gauge_id": "76650", "name_ru": "р.Большой Авзян - с.Нижний Авзян", "name_en": "r.Bol'shoj Avzjan - s.Nizhnij Avzjan" }, "geometry": { "type": "Point", "coordinates": [ 57.58921, 53.49165 ] } },
{ "type": "Feature", "properties": { "fid": 249, "gauge_id": "76651", "name_ru": "р.Шошма - с.Большие Лызи", "name_en": "r.Shoshma - s.Bol'shie Lyzi" }, "geometry": { "type": "Point", "coordinates": [ 50.175306097053308, 56.361946325666779 ] } },
{ "type": "Feature", "properties": { "fid": 250, "gauge_id": "76652", "name_ru": "р.Иж - с.Яган", "name_en": "r.Izh - s.Jagan" }, "geometry": { "type": "Point", "coordinates": [ 53.11, 56.56 ] } },
{ "type": "Feature", "properties": { "fid": 254, "gauge_id": "76656", "name_ru": "р.Летка - п.Сухоборка", "name_en": "r.Letka - p.Suhoborka" }, "geometry": { "type": "Point", "coordinates": [ 49.96, 59.1 ] } },
{ "type": "Feature", "properties": { "fid": 262, "gauge_id": "76675", "name_ru": "р.Пижма - д.Покста", "name_en": "r.Pizhma - d.Poksta" }, "geometry": { "type": "Point", "coordinates": [ 48.11675, 57.61989 ] } },
{ "type": "Feature", "properties": { "fid": 269, "gauge_id": "76696", "name_ru": "р.Сива - д.Гавриловка", "name_en": "r.Siva - d.Gavrilovka" }, "geometry": { "type": "Point", "coordinates": [ 54.06295, 57.03424 ] } },
{ "type": "Feature", "properties": { "fid": 379, "gauge_id": "70011", "name_ru": "р.Онега - д.Турчасово", "name_en": "r.Onega - d.Turchasovo" }, "geometry": { "type": "Point", "coordinates": [ 39.25224, 63.10795 ] } },
{ "type": "Feature", "properties": { "fid": 382, "gauge_id": "70027", "name_ru": "р.Волошка - д.Тороповская", "name_en": "r.Voloshka - d.Toropovskaja" }, "geometry": { "type": "Point", "coordinates": [ 39.27819, 61.69262 ] } },
{ "type": "Feature", "properties": { "fid": 401, "gauge_id": "70153", "name_ru": "р.Юг - пгт Подосиновец", "name_en": "r.Jug - pgt Podosinovets" }, "geometry": { "type": "Point", "coordinates": [ 47.04613, 60.28597 ] } },
{ "type": "Feature", "properties": { "fid": 408, "gauge_id": "70176", "name_ru": "р.Вычегда - с.Помоздино", "name_en": "r.Vychegda - s.Pomozdino" }, "geometry": { "type": "Point", "coordinates": [ 54.18993, 62.19926 ] } },
{ "type": "Feature", "properties": { "fid": 423, "gauge_id": "70246", "name_ru": "р.Весляна - р.п.Вожаель", "name_en": "r.Vesljana - r.p.Vozhael'" }, "geometry": { "type": "Point", "coordinates": [ 51.319922035368627, 62.849138473633396 ] } },
{ "type": "Feature", "properties": { "fid": 423, "gauge_id": "70246", "name_ru": "р.Весляна - р.п.Вожаель", "name_en": "r.Vesljana - r.p.Vozhael'" }, "geometry": { "type": "Point", "coordinates": [ 51.319922035368627, 62.849138473633396 ] } },
{ "type": "Feature", "properties": { "fid": 424, "gauge_id": "70248", "name_ru": "р.Иосер - пос.Иосер", "name_en": "r.Ioser - pos.Ioser" }, "geometry": { "type": "Point", "coordinates": [ 52.196842641290402, 62.997621608885332 ] } },
{ "type": "Feature", "properties": { "fid": 442, "gauge_id": "70339", "name_ru": "р.Охтома - пос.Ламбас", "name_en": "r.Ohtoma - pos.Lambas" }, "geometry": { "type": "Point", "coordinates": [ 45.92812, 62.58047 ] } },
{ "type": "Feature", "properties": { "fid": 443, "gauge_id": "70340", "name_ru": "р.Большая Илеша - пос.Красное", "name_en": "r.Bol'shaja Ilesha - pos.Krasnoe" }, "geometry": { "type": "Point", "coordinates": [ 46.75436, 62.47008 ] } },
{ "type": "Feature", "properties": { "fid": 446, "gauge_id": "70361", "name_ru": "р.Ижма - д.Ижма", "name_en": "r.Izhma - d.Izhma" }, "geometry": { "type": "Point", "coordinates": [ 40.76499, 64.71812 ] } },
{ "type": "Feature", "properties": { "fid": 450, "gauge_id": "70377", "name_ru": "р.Котуга - гм.ст.Кепино", "name_en": "r.Kotuga - gm.st.Kepino" }, "geometry": { "type": "Point", "coordinates": [ 41.847, 65.37192 ] } },
{ "type": "Feature", "properties": { "fid": 451, "gauge_id": "70378", "name_ru": "р.Мезень - д.Макариб", "name_en": "r.Mezen' - d.Makarib" }, "geometry": { "type": "Point", "coordinates": [ 49.46146, 63.62746 ] } },
{ "type": "Feature", "properties": { "fid": 461, "gauge_id": "70442", "name_ru": "р.Илыч - кордон Шежимдикост", "name_en": "r.Ilych - kordon Shezhimdikost" }, "geometry": { "type": "Point", "coordinates": [ 58.50926, 62.43278 ] } },
{ "type": "Feature", "properties": { "fid": 462, "gauge_id": "70444", "name_ru": "р.Илыч - пос.Приуральск", "name_en": "r.Ilych - pos.Priural'sk" }, "geometry": { "type": "Point", "coordinates": [ 57.46836, 62.62724 ] } },
{ "type": "Feature", "properties": { "fid": 481, "gauge_id": "70575", "name_ru": "р.Ухтомица - д.Олютинская", "name_en": "r.Uhtomitsa - d.Oljutinskaja" }, "geometry": { "type": "Point", "coordinates": [ 38.68287, 60.31905 ] } },
{ "type": "Feature", "properties": { "fid": 492, "gauge_id": "70609", "name_ru": "р.Лекшма - д.Кузьмино", "name_en": "r.Lekshma - d.Kuz'mino" }, "geometry": { "type": "Point", "coordinates": [ 38.63111, 61.42499 ] } },
{ "type": "Feature", "properties": { "fid": 496, "gauge_id": "70623", "name_ru": "р.Уфтюга - д.Заборье", "name_en": "r.Uftjuga - d.Zabor'e" }, "geometry": { "type": "Point", "coordinates": [ 44.13, 60.38 ] } },
{ "type": "Feature", "properties": { "fid": 498, "gauge_id": "70801", "name_ru": "р.Северная Двина - с.Усть-Пинега", "name_en": "r.Severnaja Dvina - s.Ust'-Pinega" }, "geometry": { "type": "Point", "coordinates": [ 41.90859, 64.1466 ] } },
{ "type": "Feature", "properties": { "fid": 500, "gauge_id": "70844", "name_ru": "р.Мезень - д.Малонисогорская", "name_en": "r.Mezen' - d.Malonisogorskaja" }, "geometry": { "type": "Point", "coordinates": [ 45.66589, 65.0112 ] } },
{ "type": "Feature", "properties": { "fid": 507, "gauge_id": "70292", "name_ru": "р.Вель - д.Пуминовская", "name_en": "r.Vel' - d.Puminovskaja" }, "geometry": { "type": "Point", "coordinates": [ 40.85768, 60.89278 ] } },
{ "type": "Feature", "properties": { "fid": 510, "gauge_id": "70619", "name_ru": "р.Онега - д.Красное", "name_en": "r.Onega - d.Krasnoe" }, "geometry": { "type": "Point", "coordinates": [ 39.5, 62.28 ] } },
{ "type": "Feature", "properties": { "fid": 511, "gauge_id": "70620", "name_ru": "р.Евда - Евда", "name_en": "r.Evda - Evda" }, "geometry": { "type": "Point", "coordinates": [ 46.05, 61.51 ] } },
{ "type": "Feature", "properties": { "fid": 515, "gauge_id": "70309", "name_ru": "р.Емца - ж-д мост", "name_en": "r.Emtsa - zh-d most" }, "geometry": { "type": "Point", "coordinates": [ 40.31776, 62.96081 ] } },
{ "type": "Feature", "properties": { "fid": 890, "gauge_id": "19016", "name_ru": "р.Большой Узень - с.Новоузенск", "name_en": "r.Bol'shoj Uzen' - s.Novouzensk" }, "geometry": { "type": "Point", "coordinates": [ 48.114957166528526, 50.458146596701035 ] } },
{ "type": "Feature", "properties": { "fid": 896, "gauge_id": "19088", "name_ru": "р.Урляда - д.Новоахуново", "name_en": "r.Urljada - d.Novoahunovo" }, "geometry": { "type": "Point", "coordinates": [ 59.28, 53.95 ] } },
{ "type": "Feature", "properties": { "fid": 908, "gauge_id": "19135", "name_ru": "р.Орь - с.Истемес", "name_en": "r.Or' - s.Istemes" }, "geometry": { "type": "Point", "coordinates": [ 59.07998760623417, 50.912145914584194 ] } },
{ "type": "Feature", "properties": { "fid": 915, "gauge_id": "19170", "name_ru": "р.Касмарка - с.Утягулово", "name_en": "r.Kasmarka - s.Utjagulovo" }, "geometry": { "type": "Point", "coordinates": [ 57.047988, 51.702184 ] } },
{ "type": "Feature", "properties": { "fid": 919, "gauge_id": "19190", "name_ru": "р.Черная - с.Красный Холм", "name_en": "r.Chernaja - s.Krasnyj Holm" }, "geometry": { "type": "Point", "coordinates": [ 54.153946972505125, 51.595787305323761 ] } },
{ "type": "Feature", "properties": { "fid": 922, "gauge_id": "19313", "name_ru": "р.Худолаз - пос.Чернышевский", "name_en": "r.Hudolaz - pos.Chernyshevskij" }, "geometry": { "type": "Point", "coordinates": [ 58.826454688662061, 52.639387177157971 ] } },
{ "type": "Feature", "properties": { "fid": 924, "gauge_id": "19382", "name_ru": "р.Большой Ик - с.Спасское", "name_en": "r.Bol'shoj Ik - s.Spasskoe" }, "geometry": { "type": "Point", "coordinates": [ 56.56, 52.0 ] } },
{ "type": "Feature", "properties": { "fid": 926, "gauge_id": "77166", "name_ru": "р.Казанка - пгт Арск", "name_en": "r.Kazanka - pgt Arsk" }, "geometry": { "type": "Point", "coordinates": [ 49.866666667, 56.080833333 ] } },
{ "type": "Feature", "properties": { "fid": 930, "gauge_id": "77197", "name_ru": "р.Меша - с.Пестрецы", "name_en": "r.Mesha - s.Pestretsy" }, "geometry": { "type": "Point", "coordinates": [ 49.661026846026608, 55.746663093820963 ] } },
{ "type": "Feature", "properties": { "fid": 936, "gauge_id": "77223", "name_ru": "р.Уса - с.Байдеряково", "name_en": "r.Usa - s.Bajderjakovo" }, "geometry": { "type": "Point", "coordinates": [ 48.56, 53.46 ] } },
{ "type": "Feature", "properties": { "fid": 940, "gauge_id": "77246", "name_ru": "р.Самара - с.Гамалеевка", "name_en": "r.Samara - s.Gamaleevka" }, "geometry": { "type": "Point", "coordinates": [ 53.433333333, 52.271666667 ] } },
{ "type": "Feature", "properties": { "fid": 943, "gauge_id": "77260", "name_ru": "р.Малый Уран - с.Грачевка", "name_en": "r.Malyj Uran - s.Grachevka" }, "geometry": { "type": "Point", "coordinates": [ 53.4, 52.66 ] } },
{ "type": "Feature", "properties": { "fid": 951, "gauge_id": "77311", "name_ru": "р.Чапаевка - с.Подъем Михайловка", "name_en": "r.Chapaevka - s.Pod'em Mihajlovka" }, "geometry": { "type": "Point", "coordinates": [ 50.51, 52.81 ] } },
{ "type": "Feature", "properties": { "fid": 959, "gauge_id": "77370", "name_ru": "р.Казанла - с.Куриловка", "name_en": "r.Kazanla - s.Kurilovka" }, "geometry": { "type": "Point", "coordinates": [ 46.888311709322096, 52.148558179163501 ] } },
{ "type": "Feature", "properties": { "fid": 966, "gauge_id": "79011", "name_ru": "р.Днепр - г.Смоленск", "name_en": "r.Dnepr - g.Smolensk" }, "geometry": { "type": "Point", "coordinates": [ 32.03735, 54.79185 ] } },
{ "type": "Feature", "properties": { "fid": 983, "gauge_id": "80204", "name_ru": "р.Сейм - г.Рыльск", "name_en": "r.Sejm - g.Ryl'sk" }, "geometry": { "type": "Point", "coordinates": [ 34.69684, 51.55887 ] } },
{ "type": "Feature", "properties": { "fid": 985, "gauge_id": "80220", "name_ru": "р.Тускарь - с.Свобода", "name_en": "r.Tuskar' - s.Svoboda" }, "geometry": { "type": "Point", "coordinates": [ 36.3235, 51.97139 ] } },
{ "type": "Feature", "properties": { "fid": 988, "gauge_id": "80230", "name_ru": "р.Реут - д.Любицкая", "name_en": "r.Reut - d.Ljubitskaja" }, "geometry": { "type": "Point", "coordinates": [ 35.56201, 51.58703 ] } },
{ "type": "Feature", "properties": { "fid": 990, "gauge_id": "80405", "name_ru": "р.Псел - г.Обоянь", "name_en": "r.Psel - g.Obojan'" }, "geometry": { "type": "Point", "coordinates": [ 36.30734, 51.19494 ] } },
{ "type": "Feature", "properties": { "fid": 1248, "gauge_id": "82026", "name_ru": "р.Шахе - с.Солох-Аул", "name_en": "r.Shahe - s.Soloh-Aul" }, "geometry": { "type": "Point", "coordinates": [ 39.6533, 43.80351 ] } },
{ "type": "Feature", "properties": { "fid": 1260, "gauge_id": "83266", "name_ru": "р.Большой Зеленчук - р.Большой Зеленчук", "name_en": "r.Bol'shoj Zelenchuk - r.Bol'shoj Zelenchuk" }, "geometry": { "type": "Point", "coordinates": [ 41.57473, 43.85654 ] } },
{ "type": "Feature", "properties": { "fid": 1263, "gauge_id": "83318", "name_ru": "р.Малая Лаба - с.Бурное", "name_en": "r.Malaja Laba - s.Burnoe" }, "geometry": { "type": "Point", "coordinates": [ 40.72411, 44.01537 ] } },
{ "type": "Feature", "properties": { "fid": 1269, "gauge_id": "83372", "name_ru": "р.Курджипс - ст-ца Нижегородская", "name_en": "r.Kurdzhips - st-tsa Nizhegorodskaja" }, "geometry": { "type": "Point", "coordinates": [ 39.91788, 44.28976 ] } },
{ "type": "Feature", "properties": { "fid": 1271, "gauge_id": "83395", "name_ru": "р.Псекупс - г.Горячий ключ", "name_en": "r.Psekups - g.Gorjachij kljuch" }, "geometry": { "type": "Point", "coordinates": [ 39.10439, 44.63654 ] } },
{ "type": "Feature", "properties": { "fid": 1274, "gauge_id": "83454", "name_ru": "р.Кирпили (Пруд) - ст-ца Кирпильская", "name_en": "r.Kirpili (Prud) - st-tsa Kirpil'skaja" }, "geometry": { "type": "Point", "coordinates": [ 39.69376, 45.37984 ] } },
{ "type": "Feature", "properties": { "fid": 1276, "gauge_id": "83460", "name_ru": "р.Псекупс - с.Садовое", "name_en": "r.Psekups - s.Sadovoe" }, "geometry": { "type": "Point", "coordinates": [ 39.17715, 44.3895 ] } },
{ "type": "Feature", "properties": { "fid": 1278, "gauge_id": "83207", "name_ru": "р.Уллу-Кам - аул Хурзук", "name_en": "r.Ullu-Kam - aul Hurzuk" }, "geometry": { "type": "Point", "coordinates": [ 42.13659, 43.43531 ] } },
{ "type": "Feature", "properties": { "fid": 1279, "gauge_id": "83249", "name_ru": "р.Аксаут - с.Хасаут-Греческое", "name_en": "r.Aksaut - s.Hasaut-Grecheskoe" }, "geometry": { "type": "Point", "coordinates": [ 41.66707, 43.71455 ] } },
{ "type": "Feature", "properties": { "fid": 1280, "gauge_id": "83323", "name_ru": "р.Большая Лаба - Азиатский мост", "name_en": "r.Bol'shaja Laba - Aziatskij most" }, "geometry": { "type": "Point", "coordinates": [ 40.96039, 43.92461 ] } },
{ "type": "Feature", "properties": { "fid": 1282, "gauge_id": "83415", "name_ru": "р.Убинка - ст-ца Северская", "name_en": "r.Ubinka - st-tsa Severskaja" }, "geometry": { "type": "Point", "coordinates": [ 38.67952, 44.84811 ] } },
{ "type": "Feature", "properties": { "fid": 1284, "gauge_id": "82025", "name_ru": "р.Псезуапсе - с.Тхагапш", "name_en": "r.Psezuapse - s.Thagapsh" }, "geometry": { "type": "Point", "coordinates": [ 39.443471882915965, 43.970478750643437 ] } },
{ "type": "Feature", "properties": { "fid": 1288, "gauge_id": "83157", "name_ru": "р.Кубань - с.Успенское", "name_en": "r.Kuban' - s.Uspenskoe" }, "geometry": { "type": "Point", "coordinates": [ 41.40081, 44.8429 ] } },
{ "type": "Feature", "properties": { "fid": 1289, "gauge_id": "83183", "name_ru": "р.Кубань - г.Краснодар", "name_en": "r.Kuban' - g.Krasnodar" }, "geometry": { "type": "Point", "coordinates": [ 38.98, 45.01 ] } },
{ "type": "Feature", "properties": { "fid": 1290, "gauge_id": "83137", "name_ru": "р.Кубань - с.им.Коста-Хетагурова", "name_en": "r.Kuban' - s.im.Kosta-Hetagurova" }, "geometry": { "type": "Point", "coordinates": [ 41.90181, 43.81037 ] } },
{ "type": "Feature", "properties": { "fid": 1357, "gauge_id": "75314", "name_ru": "р.Ока - г.Калуга", "name_en": "r.Oka - g.Kaluga" }, "geometry": { "type": "Point", "coordinates": [ 36.22854, 54.5071 ] } },
{ "type": "Feature", "properties": { "fid": 1365, "gauge_id": "75337", "name_ru": "р.Зуша - г.Новосиль", "name_en": "r.Zusha - g.Novosil'" }, "geometry": { "type": "Point", "coordinates": [ 37.079660726369767, 52.961725717441567 ] } },
{ "type": "Feature", "properties": { "fid": 1366, "gauge_id": "75339", "name_ru": "р.Зуша - г.Мценск", "name_en": "r.Zusha - g.Mtsensk" }, "geometry": { "type": "Point", "coordinates": [ 36.57167, 53.29124 ] } },
{ "type": "Feature", "properties": { "fid": 1367, "gauge_id": "75343", "name_ru": "р.Неручь - д.Орловка", "name_en": "r.Neruch' - d.Orlovka" }, "geometry": { "type": "Point", "coordinates": [ 36.92936, 52.92995 ] } },
{ "type": "Feature", "properties": { "fid": 1368, "gauge_id": "75348", "name_ru": "р.Нугрь - г.Болхов", "name_en": "r.Nugr' - g.Bolhov" }, "geometry": { "type": "Point", "coordinates": [ 36.01208, 53.44263 ] } },
{ "type": "Feature", "properties": { "fid": 1376, "gauge_id": "75389", "name_ru": "р.Протва - с.Спас-Загорье", "name_en": "r.Protva - s.Spas-Zagor'e" }, "geometry": { "type": "Point", "coordinates": [ 36.608352, 55.049046 ] } },
{ "type": "Feature", "properties": { "fid": 1386, "gauge_id": "75501", "name_ru": "р.Атмисс - с.Атмисс", "name_en": "r.Atmiss - s.Atmiss" }, "geometry": { "type": "Point", "coordinates": [ 43.93839, 53.4997 ] } },
{ "type": "Feature", "properties": { "fid": 1388, "gauge_id": "75505", "name_ru": "р.Сивинь - с.Сивинь", "name_en": "r.Sivin' - s.Sivin'" }, "geometry": { "type": "Point", "coordinates": [ 44.24497, 54.35215 ] } },
{ "type": "Feature", "properties": { "fid": 1398, "gauge_id": "75543", "name_ru": "р.Ушна - д.Новлянская", "name_en": "r.Ushna - d.Novljanskaja" }, "geometry": { "type": "Point", "coordinates": [ 41.73333, 55.8 ] } },
{ "type": "Feature", "properties": { "fid": 1399, "gauge_id": "75547", "name_ru": "р.Кишма - г.Ворсма", "name_en": "r.Kishma - g.Vorsma" }, "geometry": { "type": "Point", "coordinates": [ 43.28889, 55.99912 ] } },
{ "type": "Feature", "properties": { "fid": 1409, "gauge_id": "75758", "name_ru": "р.Постна - с.Горкино", "name_en": "r.Postna - s.Gorkino" }, "geometry": { "type": "Point", "coordinates": [ 41.581, 57.13738 ] } },
{ "type": "Feature", "properties": { "fid": 1411, "gauge_id": "75782", "name_ru": "р.Упа - д.Мезеневка", "name_en": "r.Upa - d.Mezenevka" }, "geometry": { "type": "Point", "coordinates": [ 37.65, 53.96 ] } },
{ "type": "Feature", "properties": { "fid": 1412, "gauge_id": "75783", "name_ru": "р.Шат - д.Кукуй", "name_en": "r.Shat - d.Kukuj" }, "geometry": { "type": "Point", "coordinates": [ 38.059046824758866, 54.120657879484106 ] } },
{ "type": "Feature", "properties": { "fid": 1413, "gauge_id": "75403", "name_ru": "р.Москва - с.Петро-Дальнее", "name_en": "r.Moskva - s.Petro-Dal'nee" }, "geometry": { "type": "Point", "coordinates": [ 37.17072, 55.74368 ] } },
{ "type": "Feature", "properties": { "fid": 1426, "gauge_id": "78053", "name_ru": "р.Сосна - сл.Беломестная", "name_en": "r.Sosna - sl.Belomestnaja" }, "geometry": { "type": "Point", "coordinates": [ 37.60187, 52.40982 ] } },
{ "type": "Feature", "properties": { "fid": 1429, "gauge_id": "78078", "name_ru": "р.Девица - с.Девица", "name_en": "r.Devitsa - s.Devitsa" }, "geometry": { "type": "Point", "coordinates": [ 38.93748, 51.6361 ] } },
{ "type": "Feature", "properties": { "fid": 1431, "gauge_id": "78087", "name_ru": "р.Воронеж - с.Чертовицкое", "name_en": "r.Voronezh - s.Chertovitskoe" }, "geometry": { "type": "Point", "coordinates": [ 39.27764, 51.81511 ] } },
{ "type": "Feature", "properties": { "fid": 1431, "gauge_id": "78087", "name_ru": "р.Воронеж - с.Чертовицкое", "name_en": "r.Voronezh - s.Chertovitskoe" }, "geometry": { "type": "Point", "coordinates": [ 39.27764, 51.81511 ] } },
{ "type": "Feature", "properties": { "fid": 1437, "gauge_id": "78132", "name_ru": "р.Песковатка - ст-ца Шумилинская", "name_en": "r.Peskovatka - st-tsa Shumilinskaja" }, "geometry": { "type": "Point", "coordinates": [ 41.4435562, 49.970146800000016 ] } },
{ "type": "Feature", "properties": { "fid": 1442, "gauge_id": "78144", "name_ru": "р.Хопер - х.Бесплемяновский", "name_en": "r.Hoper - h.Besplemjanovskij" }, "geometry": { "type": "Point", "coordinates": [ 41.9, 50.75 ] } },
{ "type": "Feature", "properties": { "fid": 1447, "gauge_id": "78165", "name_ru": "р.Ворона - г.Борисоглебск", "name_en": "r.Vorona - g.Borisoglebsk" }, "geometry": { "type": "Point", "coordinates": [ 42.04876, 51.3756 ] } },
{ "type": "Feature", "properties": { "fid": 1449, "gauge_id": "78182", "name_ru": "р.Бузулук - пгт Киквидзе", "name_en": "r.Buzuluk - pgt Kikvidze" }, "geometry": { "type": "Point", "coordinates": [ 43.06284, 50.75259 ] } },
{ "type": "Feature", "properties": { "fid": 1458, "gauge_id": "78231", "name_ru": "р.Иловля - с.Боровки", "name_en": "r.Ilovlja - s.Borovki" }, "geometry": { "type": "Point", "coordinates": [ 44.03729, 49.39913 ] } },
{ "type": "Feature", "properties": { "fid": 1461, "gauge_id": "78252", "name_ru": "р.Чир - ст-ца Обливская", "name_en": "r.Chir - st-tsa Oblivskaja" }, "geometry": { "type": "Point", "coordinates": [ 42.51344, 48.52346 ] } },
{ "type": "Feature", "properties": { "fid": 1464, "gauge_id": "78277", "name_ru": "р.Северский Донец - с.Зеленая Поляна", "name_en": "r.Severskij Donets - s.Zelenaja Poljana" }, "geometry": { "type": "Point", "coordinates": [ 36.640820137615222, 50.631826680817568 ] } },
{ "type": "Feature", "properties": { "fid": 1466, "gauge_id": "78343", "name_ru": "р.Болховец - г.Белгород", "name_en": "r.Bolhovets - g.Belgorod" }, "geometry": { "type": "Point", "coordinates": [ 36.57689, 50.59167 ] } },
{ "type": "Feature", "properties": { "fid": 1467, "gauge_id": "78345", "name_ru": "р.Нежеголь - г.Шебекино", "name_en": "r.Nezhegol' - g.Shebekino" }, "geometry": { "type": "Point", "coordinates": [ 36.89493, 50.42211 ] } },
{ "type": "Feature", "properties": { "fid": 1468, "gauge_id": "78391", "name_ru": "р.Оскол - г.Старый Оскол", "name_en": "r.Oskol - g.Staryj Oskol" }, "geometry": { "type": "Point", "coordinates": [ 37.84225, 51.30035 ] } },
{ "type": "Feature", "properties": { "fid": 1482, "gauge_id": "78513", "name_ru": "р.Быстрая - сл.Скосырская", "name_en": "r.Bystraja - sl.Skosyrskaja" }, "geometry": { "type": "Point", "coordinates": [ 41.30419, 48.41458 ] } },
{ "type": "Feature", "properties": { "fid": 1483, "gauge_id": "78515", "name_ru": "р.Быстрая - х.Апанаскин", "name_en": "r.Bystraja - h.Apanaskin" }, "geometry": { "type": "Point", "coordinates": [ 41.09291, 48.13672 ] } },
{ "type": "Feature", "properties": { "fid": 1490, "gauge_id": "78611", "name_ru": "р.Матыра - с.Крутое", "name_en": "r.Matyra - s.Krutoe" }, "geometry": { "type": "Point", "coordinates": [ 40.27301, 52.53933 ] } },
{ "type": "Feature", "properties": { "fid": 1494, "gauge_id": "78623", "name_ru": "р.Сал - х.Балабинка", "name_en": "r.Sal - h.Balabinka" }, "geometry": { "type": "Point", "coordinates": [ 40.907, 47.42452 ] } },
{ "type": "Feature", "properties": { "fid": 1496, "gauge_id": "83061", "name_ru": "р.Миус - с.Куйбышево", "name_en": "r.Mius - s.Kujbyshevo" }, "geometry": { "type": "Point", "coordinates": [ 38.91205, 47.80027 ] } },
{ "type": "Feature", "properties": { "fid": 1500, "gauge_id": "84011", "name_ru": "р.Калаус - с.Воздвиженское", "name_en": "r.Kalaus - s.Vozdvizhenskoe" }, "geometry": { "type": "Point", "coordinates": [ 43.659742553456503, 45.820624346873799 ] } },
{ "type": "Feature", "properties": { "fid": 1502, "gauge_id": "75006", "name_ru": "р.Волга - г.Старица", "name_en": "r.Volga - g.Staritsa" }, "geometry": { "type": "Point", "coordinates": [ 34.92472, 56.51543 ] } },
{ "type": "Feature", "properties": { "fid": 1503, "gauge_id": "75033", "name_ru": "р.Вазуза - с.Дугино", "name_en": "r.Vazuza - s.Dugino" }, "geometry": { "type": "Point", "coordinates": [ 34.19674, 55.68752 ] } },
{ "type": "Feature", "properties": { "fid": 1505, "gauge_id": "75074", "name_ru": "р.Лама - с.Егорье", "name_en": "r.Lama - s.Egor'e" }, "geometry": { "type": "Point", "coordinates": [ 35.9316, 56.28042 ] } },
{ "type": "Feature", "properties": { "fid": 1505, "gauge_id": "75074", "name_ru": "р.Лама - с.Егорье", "name_en": "r.Lama - s.Egor'e" }, "geometry": { "type": "Point", "coordinates": [ 35.9316, 56.28042 ] } },
{ "type": "Feature", "properties": { "fid": 1507, "gauge_id": "75106", "name_ru": "р.Корожечна - д.Масальское(д.Сумы)", "name_en": "r.Korozhechna - d.Masal'skoe(d.Sumy)" }, "geometry": { "type": "Point", "coordinates": [ 38.00461, 57.54616 ] } },
{ "type": "Feature", "properties": { "fid": 1525, "gauge_id": "75203", "name_ru": "р.Мегра - д.Старое село", "name_en": "r.Megra - d.Staroe selo" }, "geometry": { "type": "Point", "coordinates": [ 36.96496, 60.19427 ] } },
{ "type": "Feature", "properties": { "fid": 1529, "gauge_id": "75211", "name_ru": "р.Индоманка - д.Малеево", "name_en": "r.Indomanka - d.Maleevo" }, "geometry": { "type": "Point", "coordinates": [ 38.0038, 60.65881 ] } },
{ "type": "Feature", "properties": { "fid": 1529, "gauge_id": "75211", "name_ru": "р.Индоманка - д.Малеево", "name_en": "r.Indomanka - d.Maleevo" }, "geometry": { "type": "Point", "coordinates": [ 38.0038, 60.65881 ] } },
{ "type": "Feature", "properties": { "fid": 1530, "gauge_id": "75217", "name_ru": "р.Согожа - д.Андрюшино (д.Радионка)", "name_en": "r.Sogozha - d.Andrjushino (d.Radionka)" }, "geometry": { "type": "Point", "coordinates": [ 39.33211, 58.83987 ] } },
{ "type": "Feature", "properties": { "fid": 1530, "gauge_id": "75217", "name_ru": "р.Согожа - д.Андрюшино (д.Радионка)", "name_en": "r.Sogozha - d.Andrjushino (d.Radionka)" }, "geometry": { "type": "Point", "coordinates": [ 39.33211, 58.83987 ] } },
{ "type": "Feature", "properties": { "fid": 1532, "gauge_id": "75221", "name_ru": "р.Урдома - с.Белятино", "name_en": "r.Urdoma - s.Beljatino" }, "geometry": { "type": "Point", "coordinates": [ 39.50515, 57.93874 ] } },
{ "type": "Feature", "properties": { "fid": 1534, "gauge_id": "75225", "name_ru": "р.Которосль - г.Гаврилов Ям", "name_en": "r.Kotorosl' - g.Gavrilov Jam" }, "geometry": { "type": "Point", "coordinates": [ 39.8316, 57.30584 ] } },
{ "type": "Feature", "properties": { "fid": 1536, "gauge_id": "75235", "name_ru": "р.Нерехта - г.Нерехта", "name_en": "r.Nerehta - g.Nerehta" }, "geometry": { "type": "Point", "coordinates": [ 40.57865, 57.45978 ] } },
{ "type": "Feature", "properties": { "fid": 1536, "gauge_id": "75235", "name_ru": "р.Нерехта - г.Нерехта", "name_en": "r.Nerehta - g.Nerehta" }, "geometry": { "type": "Point", "coordinates": [ 40.57865, 57.45978 ] } },
{ "type": "Feature", "properties": { "fid": 1540, "gauge_id": "75241", "name_ru": "р.Кострома - г.Буй(ниже устья р.Вексы)", "name_en": "r.Kostroma - g.Buj(nizhe ust'ja r.Veksy)" }, "geometry": { "type": "Point", "coordinates": [ 41.52836, 58.48056 ] } },
{ "type": "Feature", "properties": { "fid": 1548, "gauge_id": "75274", "name_ru": "р.Медоза - с.Заборье", "name_en": "r.Medoza - s.Zabor'e" }, "geometry": { "type": "Point", "coordinates": [ 42.41182, 57.69418 ] } },
{ "type": "Feature", "properties": { "fid": 1556, "gauge_id": "75293", "name_ru": "р.Нуя - д.Буслаево", "name_en": "r.Nuja - d.Buslaevo" }, "geometry": { "type": "Point", "coordinates": [ 43.69312, 58.00563 ] } },
{ "type": "Feature", "properties": { "fid": 1558, "gauge_id": "75297", "name_ru": "р.Черный Лух - с.Юрово", "name_en": "r.Chernyj Luh - s.Jurovo" }, "geometry": { "type": "Point", "coordinates": [ 43.84076, 57.51723 ] } },
{ "type": "Feature", "properties": { "fid": 1559, "gauge_id": "75299", "name_ru": "р.Лоймина - д.Георгиевское", "name_en": "r.Lojmina - d.Georgievskoe" }, "geometry": { "type": "Point", "coordinates": [ 43.32997, 57.06657 ] } },
{ "type": "Feature", "properties": { "fid": 1559, "gauge_id": "75299", "name_ru": "р.Лоймина - д.Георгиевское", "name_en": "r.Lojmina - d.Georgievskoe" }, "geometry": { "type": "Point", "coordinates": [ 43.32997, 57.06657 ] } },
{ "type": "Feature", "properties": { "fid": 1564, "gauge_id": "75607", "name_ru": "р.Керженец - с.Огибное", "name_en": "r.Kerzhenets - s.Ogibnoe" }, "geometry": { "type": "Point", "coordinates": [ 44.58232, 57.07519 ] } },
{ "type": "Feature", "properties": { "fid": 1568, "gauge_id": "75624", "name_ru": "р.Сура - с.Сурское", "name_en": "r.Sura - s.Surskoe" }, "geometry": { "type": "Point", "coordinates": [ 46.72038, 54.46113 ] } },
{ "type": "Feature", "properties": { "fid": 1568, "gauge_id": "75624", "name_ru": "р.Сура - с.Сурское", "name_en": "r.Sura - s.Surskoe" }, "geometry": { "type": "Point", "coordinates": [ 46.72038, 54.46113 ] } },
{ "type": "Feature", "properties": { "fid": 1594, "gauge_id": "75751", "name_ru": "р.Мокза - д.Юркино", "name_en": "r.Mokza - d.Jurkino" }, "geometry": { "type": "Point", "coordinates": [ 39.07832, 57.4239 ] } },
{ "type": "Feature", "properties": { "fid": 1602, "gauge_id": "77124", "name_ru": "р.Малая Кокшага - рзд Куяр", "name_en": "r.Malaja Kokshaga - rzd Kujar" }, "geometry": { "type": "Point", "coordinates": [ 47.98, 56.55 ] } },
{ "type": "Feature", "properties": { "fid": 1603, "gauge_id": "77130", "name_ru": "р.Средний Аниш - с.Байгулово", "name_en": "r.Srednij Anish - s.Bajgulovo" }, "geometry": { "type": "Point", "coordinates": [ 47.96, 55.83 ] } },
{ "type": "Feature", "properties": { "fid": 1610, "gauge_id": "77164", "name_ru": "р.Кубня - с.Чутеево", "name_en": "r.Kubnja - s.Chuteevo" }, "geometry": { "type": "Point", "coordinates": [ 47.75, 55.3 ] } },
{ "type": "Feature", "properties": { "fid": 1616, "gauge_id": "84029", "name_ru": "р.Кума - ст-ца Александрийская", "name_en": "r.Kuma - st-tsa Aleksandrijskaja" }, "geometry": { "type": "Point", "coordinates": [ 43.36, 44.21 ] } },
{ "type": "Feature", "properties": { "fid": 1618, "gauge_id": "84034", "name_ru": "р.Кума - г.Зеленокумск", "name_en": "r.Kuma - g.Zelenokumsk" }, "geometry": { "type": "Point", "coordinates": [ 43.88, 44.41 ] } },
{ "type": "Feature", "properties": { "fid": 1621, "gauge_id": "84043", "name_ru": "р.Подкумок - г.Кисловодск", "name_en": "r.Podkumok - g.Kislovodsk" }, "geometry": { "type": "Point", "coordinates": [ 42.731666667, 43.9425 ] } },
{ "type": "Feature", "properties": { "fid": 1626, "gauge_id": "84119", "name_ru": "р.Терек - ст.Котляревская", "name_en": "r.Terek - st.Kotljarevskaja" }, "geometry": { "type": "Point", "coordinates": [ 44.08, 43.58 ] } },
{ "type": "Feature", "properties": { "fid": 1630, "gauge_id": "84173", "name_ru": "р.Камбилеевка - с.Ольгинское", "name_en": "r.Kambileevka - s.Ol'ginskoe" }, "geometry": { "type": "Point", "coordinates": [ 44.7, 43.16 ] } },
{ "type": "Feature", "properties": { "fid": 1640, "gauge_id": "84295", "name_ru": "р.Сулак - с.Миатлы", "name_en": "r.Sulak - s.Miatly" }, "geometry": { "type": "Point", "coordinates": [ 46.83, 43.06 ] } },
{ "type": "Feature", "properties": { "fid": 1645, "gauge_id": "84342", "name_ru": "р.Самур - с.Лучек", "name_en": "r.Samur - s.Luchek" }, "geometry": { "type": "Point", "coordinates": [ 47.3, 41.615 ] } },
{ "type": "Feature", "properties": { "fid": 1649, "gauge_id": "84347", "name_ru": "р.Ахтычай - с.Ахты", "name_en": "r.Ahtychaj - s.Ahty" }, "geometry": { "type": "Point", "coordinates": [ 47.739148958317415, 41.466873619197948 ] } },
{ "type": "Feature", "properties": { "fid": 1656, "gauge_id": "84446", "name_ru": "р.Сулак - с.Языковка", "name_en": "r.Sulak - s.Jazykovka" }, "geometry": { "type": "Point", "coordinates": [ 47.014188498685371, 43.341904293077789 ] } },
{ "type": "Feature", "properties": { "fid": 1659, "gauge_id": "84449", "name_ru": "р.Фиагдон - пос.Верхний Фиагдон", "name_en": "r.Fiagdon - pos.Verhnij Fiagdon" }, "geometry": { "type": "Point", "coordinates": [ 44.3, 42.83 ] } },
{ "type": "Feature", "properties": { "fid": 1662, "gauge_id": "84454", "name_ru": "р.Кара-Койсу - Гунибский мост", "name_en": "r.Kara-Kojsu - Gunibskij most" }, "geometry": { "type": "Point", "coordinates": [ 46.969998511356643, 42.3858137220831 ] } },
{ "type": "Feature", "properties": { "fid": 1663, "gauge_id": "84803", "name_ru": "р.Терек,рук.Новый Терек - Каргалинский гидроузел", "name_en": "r.Terek,ruk.Novyj Terek - Kargalinskij gidrouzel" }, "geometry": { "type": "Point", "coordinates": [ 46.543935953319099, 43.733057409873503 ] } },
{ "type": "Feature", "properties": { "fid": 1668, "gauge_id": "84279", "name_ru": "р.Аргун - с.Дуба-Юрт", "name_en": "r.Argun - s.Duba-Jurt" }, "geometry": { "type": "Point", "coordinates": [ 45.71, 43.03 ] } },
{ "type": "Feature", "properties": { "fid": 1694, "gauge_id": "48038", "name_ru": "р.Суна - пгт Поросозеро", "name_en": "r.Suna - pgt Porosozero" }, "geometry": { "type": "Point", "coordinates": [ 32.74211, 62.70289 ] } },
{ "type": "Feature", "properties": { "fid": 1696, "gauge_id": "48058", "name_ru": "р.Кумса - г.Медвежьегорск", "name_en": "r.Kumsa - g.Medvezh'egorsk" }, "geometry": { "type": "Point", "coordinates": [ 34.43313, 62.91741 ] } },
{ "type": "Feature", "properties": { "fid": 1700, "gauge_id": "48079", "name_ru": "р.Водла - г.Пудож", "name_en": "r.Vodla - g.Pudozh" }, "geometry": { "type": "Point", "coordinates": [ 36.49456, 61.7918 ] } },
{ "type": "Feature", "properties": { "fid": 1701, "gauge_id": "48085", "name_ru": "р.Колода - д.Кубовская", "name_en": "r.Koloda - d.Kubovskaja" }, "geometry": { "type": "Point", "coordinates": [ 37.22709, 61.95 ] } },
{ "type": "Feature", "properties": { "fid": 1706, "gauge_id": "48097", "name_ru": "р.Андома - д.Рубцово", "name_en": "r.Andoma - d.Rubtsovo" }, "geometry": { "type": "Point", "coordinates": [ 36.71695, 61.1761 ] } },
{ "type": "Feature", "properties": { "fid": 1709, "gauge_id": "48123", "name_ru": "р.Мегра - д.Павловская", "name_en": "r.Megra - d.Pavlovskaja" }, "geometry": { "type": "Point", "coordinates": [ 35.97207, 60.69365 ] } },
{ "type": "Feature", "properties": { "fid": 1714, "gauge_id": "72043", "name_ru": "р.Тосна - ст.Тосно", "name_en": "r.Tosna - st.Tosno" }, "geometry": { "type": "Point", "coordinates": [ 30.8903, 59.54097 ] } },
{ "type": "Feature", "properties": { "fid": 1717, "gauge_id": "72083", "name_ru": "р.Вьюн - пос.Запорожское", "name_en": "r.V'jun - pos.Zaporozhskoe" }, "geometry": { "type": "Point", "coordinates": [ 30.51045, 60.57292 ] } },
{ "type": "Feature", "properties": { "fid": 1722, "gauge_id": "72102", "name_ru": "р.Эня-Йоки - д.Ряймяля", "name_en": "r.Enja-Joki - d.Rjajmjalja" }, "geometry": { "type": "Point", "coordinates": [ 31.96237, 61.34921 ] } },
{ "type": "Feature", "properties": { "fid": 1727, "gauge_id": "72113", "name_ru": "р.Мегрега - д.Куйтежа", "name_en": "r.Megrega - d.Kujtezha" }, "geometry": { "type": "Point", "coordinates": [ 33.1985, 60.99212 ] } },
{ "type": "Feature", "properties": { "fid": 1730, "gauge_id": "72148", "name_ru": "р.Оять - д.Акулова Гора", "name_en": "r.Ojat' - d.Akulova Gora" }, "geometry": { "type": "Point", "coordinates": [ 33.56152, 60.48735 ] } },
{ "type": "Feature", "properties": { "fid": 1735, "gauge_id": "72179", "name_ru": "р.Пярдомля - д.Кондратово", "name_en": "r.Pjardomlja - d.Kondratovo" }, "geometry": { "type": "Point", "coordinates": [ 33.85738, 59.45916 ] } },
{ "type": "Feature", "properties": { "fid": 1742, "gauge_id": "72281", "name_ru": "р.Мста - д.Девкино", "name_en": "r.Msta - d.Devkino" }, "geometry": { "type": "Point", "coordinates": [ 32.19204, 58.59755 ] } },
{ "type": "Feature", "properties": { "fid": 1743, "gauge_id": "72285", "name_ru": "р.Цна - д.Жилотково", "name_en": "r.Tsna - d.Zhilotkovo" }, "geometry": { "type": "Point", "coordinates": [ 34.22185, 57.53213 ] } },
{ "type": "Feature", "properties": { "fid": 1743, "gauge_id": "72285", "name_ru": "р.Цна - д.Жилотково", "name_en": "r.Tsna - d.Zhilotkovo" }, "geometry": { "type": "Point", "coordinates": [ 34.22185, 57.53213 ] } },
{ "type": "Feature", "properties": { "fid": 1763, "gauge_id": "72623", "name_ru": "р.Плюсса - с.Плюсса", "name_en": "r.Pljussa - s.Pljussa" }, "geometry": { "type": "Point", "coordinates": [ 29.39765, 58.42195 ] } },
{ "type": "Feature", "properties": { "fid": 1763, "gauge_id": "72623", "name_ru": "р.Плюсса - с.Плюсса", "name_en": "r.Pljussa - s.Pljussa" }, "geometry": { "type": "Point", "coordinates": [ 29.39765, 58.42195 ] } },
{ "type": "Feature", "properties": { "fid": 1774, "gauge_id": "72729", "name_ru": "р.Ижора - д.Аннолово", "name_en": "r.Izhora - d.Annolovo" }, "geometry": { "type": "Point", "coordinates": [ 30.55299, 59.63572 ] } },
{ "type": "Feature", "properties": { "fid": 1779, "gauge_id": "72748", "name_ru": "р.Шомушка - д.Бор", "name_en": "r.Shomushka - d.Bor" }, "geometry": { "type": "Point", "coordinates": [ 33.46583, 59.76832 ] } },
{ "type": "Feature", "properties": { "fid": 1808, "gauge_id": "49095", "name_ru": "р.Ундужа - д.Вожмогора", "name_en": "r.Unduzha - d.Vozhmogora" }, "geometry": { "type": "Point", "coordinates": [ 35.47797, 63.44847 ] } },
{ "type": "Feature", "properties": { "fid": 1811, "gauge_id": "72064", "name_ru": "р.Авлога - д.Матокса", "name_en": "r.Avloga - d.Matoksa" }, "geometry": { "type": "Point", "coordinates": [ 30.6269, 60.30825 ] } },
{ "type": "Feature", "properties": { "fid": 1811, "gauge_id": "72064", "name_ru": "р.Авлога - д.Матокса", "name_en": "r.Avloga - d.Matoksa" }, "geometry": { "type": "Point", "coordinates": [ 30.6269, 60.30825 ] } },
{ "type": "Feature", "properties": { "fid": 1825, "gauge_id": "82046", "name_ru": "р.Хоста - пос.Хоста", "name_en": "r.Hosta - pos.Hosta" }, "geometry": { "type": "Point", "coordinates": [ 39.86974, 43.51684 ] } },
{ "type": "Feature", "properties": { "fid": 1835, "gauge_id": "49054", "name_ru": "р.Керкешь - устье", "name_en": "r.Kerkesh' - ust'e" }, "geometry": { "type": "Point", "coordinates": [ 31.305792225735772, 65.17176868062819 ] } },
{ "type": "Feature", "properties": { "fid": 1880, "gauge_id": "76704", "name_ru": "р.Далека - с.Мариинск", "name_en": "r.Daleka - s.Mariinsk" }, "geometry": { "type": "Point", "coordinates": [ 59.8797, 56.6092 ] } },
{ "type": "Feature", "properties": { "fid": 1880, "gauge_id": "76704", "name_ru": "р.Далека - с.Мариинск", "name_en": "r.Daleka - s.Mariinsk" }, "geometry": { "type": "Point", "coordinates": [ 59.8797, 56.6092 ] } },
{ "type": "Feature", "properties": { "fid": 1880, "gauge_id": "76704", "name_ru": "р.Далека - с.Мариинск", "name_en": "r.Daleka - s.Mariinsk" }, "geometry": { "type": "Point", "coordinates": [ 59.8797, 56.6092 ] } }
]
}
